******** Week 939 almanac for PRN-01 ********
ID:                         01
Health:                     000
Eccentricity:               4.3466372881E-004
Time of Applicability(s):  345600.0000
Orbital Inclination(rad):   0.0656061163
Rate of Right Ascen(r/s):   3.2197769738E-009
SQRT(A)  (m 1/2):           6493.414207
Right Ascen at Week(rad):  -2.8569779109E+000
Argument of Perigee(rad):  -0.830843379
Mean Anom(rad):            -2.8111945832E-003
Af0(s):                     8.8150356896E-004
Af1(s/s):                   5.8797411384E-013
week:                        939

******** Week 939 almanac for PRN-02 ********
ID:                         02
Health:                     000
Eccentricity:               9.1646087822E-004
Time of Applicability(s):  345600.0000
Orbital Inclination(rad):   0.0543377572
Rate of Right Ascen(r/s):   5.2987921445E-009
SQRT(A)  (m 1/2):           6493.457811
Right Ascen at Week(rad):  -2.8117217853E+000
Argument of Perigee(rad):   1.258114159
Mean Anom(rad):             3.0891406797E+000
Af0(s):                     3.0987209175E-004
Af1(s/s):                   3.3031355429E-011
week:                        939

******** Week 939 almanac for PRN-03 ********
ID:                         03
Health:                     000
Eccentricity:               9.6896733157E-004
Time of Applicability(s):  345600.0000
Orbital Inclination(rad):   0.0678060862
Rate of Right Ascen(r/s):   3.0151255921E-009
SQRT(A)  (m 1/2):           6493.551647
Right Ascen at Week(rad):  -2.8358771638E+000
Argument of Perigee(rad):   1.486113972
Mean Anom(rad):            -2.9352380917E+000
Af0(s):                    -1.2474786490E-004
Af1(s/s):                   2.2569501823E-011
week:                        939

******** Week 939 almanac for PRN-04 ********
ID:                         04
Health:                     000
Eccentricity:               7.6239893679E-004
Time of Applicability(s):  345600.0000
Orbital Inclination(rad):   0.0689159773
Rate of Right Ascen(r/s):   2.7261849851E-009
SQRT(A)  (m 1/2):           6493.393343
Right Ascen at Week(rad):  -2.8419823979E+000
Argument of Perigee(rad):  -0.698770309
Mean Anom(rad):             1.2024976390E-001
Af0(s):                     5.8665091638E-004
Af1(s/s):                   1.5374368445E-010
week:                        939

******** Week 939 almanac for PRN-05 ********
ID:                         05
Health:                     000
Eccentricity:               9.0466882102E-004
Time of Applicability(s):  345600.0000
Orbital Inclination(rad):   0.0609998116
Rate of Right Ascen(r/s):   5.5252301480E-009
SQRT(A)  (m 1/2):           6493.441011
Right Ascen at Week(rad):  -2.7508418599E+000
Argument of Perigee(rad):  -0.292634147
Mean Anom(rad):            -2.1460959596E+000
Af0(s):                     1.7729739193E-004
Af1(s/s):                  -6.1886495928E-011
week:                        939

******** Week 939 almanac for PRN-06 ********
ID:                         06
Health:                     000
Eccentricity:               3.8048631977E-003
Time of Applicability(s):  345600.0000
Orbital Inclination(rad):   0.9460589385
Rate of Right Ascen(r/s):  -1.8068609773E-009
SQRT(A)  (m 1/2):           6493.386864
Right Ascen at Week(rad):   1.2549306462E+000
Argument of Perigee(rad):  -2.980791964
Mean Anom(rad):            -2.5905157185E+000
Af0(s):                     2.8020353056E-005
Af1(s/s):                   2.0550672275E-011
week:                        939

******** Week 939 almanac for PRN-07 ********
ID:                         07
Health:                     000
Eccentricity:               3.1159693608E-003
Time of Applicability(s):  345600.0000
Orbital Inclination(rad):   0.8589944808
Rate of Right Ascen(r/s):  -2.8326179899E-009
SQRT(A)  (m 1/2):           6492.745768
Right Ascen at Week(rad):  -3.0773746812E+000
Argument of Perigee(rad):  -2.558816193
Mean Anom(rad):             1.2310441578E+000
Af0(s):                    -5.8054516558E-004
Af1(s/s):                  -6.0882854314E-011
week:                        939

******** Week 939 almanac for PRN-08 ********
ID:                         08
Health:                     000
Eccentricity:               2.9411030700E-003
Time of Applicability(s):  345600.0000
Orbital Inclination(rad):   1.0665905950
Rate of Right Ascen(r/s):  -1.9197228213E-009
SQRT(A)  (m 1/2):           6492.822563
Right Ascen at Week(rad):  -8.7983986532E-001
Argument of Perigee(rad):  -3.128644309
Mean Anom(rad):            -3.7775083847E-001
Af0(s):                     1.3701524586E-004
Af1(s/s):                  -2.5818458482E-011
week:                        939

******** Week 939 almanac for PRN-09 ********
ID:                         09
Health:                     000
Eccentricity:               1.1520711123E-002
Time of Applicability(s):  345600.0000
Orbital Inclination(rad):   0.9513873718
Rate of Right Ascen(r/s):  -1.7686450997E-009
SQRT(A)  (m 1/2):           6492.979303
Right Ascen at Week(rad):   1.2999767524E+000
Argument of Perigee(rad):  -2.338750790
Mean Anom(rad):             2.7290725885E+000
Af0(s):                    -3.0534318648E-004
Af1(s/s):                  -5.0685677877E-011
week:                        939

******** Week 939 almanac for PRN-10 ********
ID:                         10
Health:                     000
Eccentricity:               9.3357937876E-003
Time of Applicability(s):  345600.0000
Orbital Inclination(rad):   0.8612537837
Rate of Right Ascen(r/s):  -2.8354752518E-009
SQRT(A)  (m 1/2):           6493.054718
Right Ascen at Week(rad):  -3.0829922456E+000
Argument of Perigee(rad):  -2.434021906
Mean Anom(rad):             9.3939233449E-001
Af0(s):                     1.3987207785E-004
Af1(s/s):                  -1.4827250538E-011
week:                        939

******** Week 939 almanac for PRN-11 ********
ID:                         11
Health:                     000
Eccentricity:               2.2555696778E-003
Time of Applicability(s):  345600.0000
Orbital Inclination(rad):   0.9850738431
Rate of Right Ascen(r/s):  -6.7574243310E-009
SQRT(A)  (m 1/2):           5282.632744
Right Ascen at Week(rad):  -2.1699730648E+000
Argument of Perigee(rad):  -1.658939545
Mean Anom(rad):             6.3201613428E-001
Af0(s):                     3.4012016840E-004
Af1(s/s):                   1.9297452525E-011
week:                        939

******** Week 939 almanac for PRN-12 ********
ID:                         12
Health:                     001
Eccentricity:               1.3543589739E-003
Time of Applicability(s):  345600.0000
Orbital Inclination(rad):   0.9834967954
Rate of Right Ascen(r/s):  -6.6549200613E-009
SQRT(A)  (m 1/2):           5282.628082
Right Ascen at Week(rad):  -2.1824709685E+000
Argument of Perigee(rad):  -1.570413810
Mean Anom(rad):             1.3536145326E+000
Af0(s):                     8.0666039139E-004
Af1(s/s):                  -1.1291412250E-011
week:                        939

******** Week 939 almanac for PRN-13 ********
ID:                         13
Health:                     000
Eccentricity:               4.9128802493E-003
Time of Applicability(s):  345600.0000
Orbital Inclination(rad):   1.0284071970
Rate of Right Ascen(r/s):  -2.0036548888E-009
SQRT(A)  (m 1/2):           6493.706043
Right Ascen at Week(rad):  -9.0926095313E-001
Argument of Perigee(rad):  -2.380532442
Mean Anom(rad):            -1.2828011681E+000
Af0(s):                     4.0353299119E-004
Af1(s/s):                   4.4702019864E-012
week:                        939

******** Week 939 almanac for PRN-14 ********
ID:                         14
Health:                     000
Eccentricity:               1.0836010333E-003
Time of Applicability(s):  345600.0000
Orbital Inclination(rad):   0.9739498184
Rate of Right Ascen(r/s):  -6.6049179785E-009
SQRT(A)  (m 1/2):           5282.626471
Right Ascen at Week(rad):  -1.1256812005E-001
Argument of Perigee(rad):  -0.355765428
Mean Anom(rad):            -2.7449702260E+000
Af0(s):                    -1.0895833839E-004
Af1(s/s):                   8.0733641994E-011
week:                        939

******** Week 939 almanac for PRN-16 ********
ID:                         16
Health:                     000
Eccentricity:               6.3390969299E-003
Time of Applicability(s):  345600.0000
Orbital Inclination(rad):   0.9614893478
Rate of Right Ascen(r/s):  -1.7393581655E-009
SQRT(A)  (m 1/2):           6494.006355
Right Ascen at Week(rad):   1.2501746410E+000
Argument of Perigee(rad):  -2.299517332
Mean Anom(rad):             3.0291318898E+000
Af0(s):                    -2.6188208722E-004
Af1(s/s):                  -2.0691892644E-011
week:                        939

******** Week 939 almanac for PRN-19 ********
ID:                         19
Health:                     000
Eccentricity:               7.6549337246E-004
Time of Applicability(s):  345600.0000
Orbital Inclination(rad):   0.9765835405
Rate of Right Ascen(r/s):  -6.9102878412E-009
SQRT(A)  (m 1/2):           5282.627161
Right Ascen at Week(rad):  -1.1125937159E-001
Argument of Perigee(rad):  -1.118868662
Mean Anom(rad):             7.5322506189E-001
Af0(s):                    -9.4258016907E-004
Af1(s/s):                   5.3148596635E-012
week:                        939

******** Week 939 almanac for PRN-20 ********
ID:                         20
Health:                     000
Eccentricity:               5.5590015836E-004
Time of Applicability(s):  345600.0000
Orbital Inclination(rad):   0.9765726462
Rate of Right Ascen(r/s):  -6.9099306835E-009
SQRT(A)  (m 1/2):           5282.630281
Right Ascen at Week(rad):  -1.1063262969E-001
Argument of Perigee(rad):  -0.546326524
Mean Anom(rad):             9.1944998884E-001
Af0(s):                    -3.2113050111E-005
Af1(s/s):                  -3.5461411585E-011
week:                        939

